NORAD_CAT_ID,OBJECT_NAME,OBJECT_TYPE,EPOCH,MEAN_MOTION,ECCENTRICITY,INCLINATION,RA_OF_ASC_NODE,ARG_OF_PERICENTER,MEAN_ANOMALY,BSTAR,MEAN_MOTION_DOT,MEAN_MOTION_DDOT,TLE_LINE0,TLE_LINE1,TLE_LINE2,SEMIMAJOR_AXIS,PERIOD,APOGEE,PERIGEE,DECAYED
55318.0,STARLINK-5180,PAYLOAD,2023-06-27 20:24:11,15.69931257,0.0003731,69.9995,340.9704,269.4546,90.6222,3.6035e-05,4.124e-05,0.0,0 STARLINK-5180,1 55318U 23010BB  23178.85013540  .00004124  00000-0  36035-4 0  9997,2 55318  69.9995 340.9704 0003731 269.4546  90.6222 15.69931257 25510,6737.231,91.724,361.609,356.582,0.0
55318.0,STARLINK-5180,PAYLOAD,2023-06-28 13:13:28,15.69927898,0.0003492,69.9987,338.9961,274.9196,85.1601,1.8757e-05,2.043e-05,0.0,0 STARLINK-5180,1 55318U 23010BB  23179.55102117  .00002043  00000-0  18757-4 0  9993,2 55318  69.9987 338.9961 0003492 274.9196  85.1601 15.69927898 25627,6737.24,91.724,361.458,356.753,0.0
55318.0,STARLINK-5180,PAYLOAD,2023-06-29 18:16:45,15.69936212,0.0003361,69.9996,335.5933,276.0625,84.0187,3.073e-05,3.486e-05,0.0,0 STARLINK-5180,1 55318U 23010BB  23180.76163455  .00003486  00000-0  30730-4 0  9997,2 55318  69.9996 335.5933 0003361 276.0625  84.0187 15.69936212 25812,6737.216,91.723,361.346,356.817,0.0
55318.0,STARLINK-5180,PAYLOAD,2023-07-01 17:41:04,15.69940477,0.0003576,70.0001,330.0419,273.247,86.8316,9.9952e-05,0.00011831,0.0,0 STARLINK-5180,1 55318U 23010BB  23182.73685616  .00011831  00000-0  99952-4 0  9998,2 55318  70.0001 330.0419 0003576 273.2470  86.8316 15.69940477 26123,6737.204,91.723,361.479,356.66,0.0
55318.0,STARLINK-5180,PAYLOAD,2023-07-02 10:30:21,15.69928159,0.0003162,70.0006,328.0705,271.6534,88.4299,2.6182e-05,2.937e-05,0.0,0 STARLINK-5180,1 55318U 23010BB  23183.43774342  .00002937  00000-0  26182-4 0  9993,2 55318  70.0006 328.0705 0003162 271.6534  88.4299 15.69928159 26230,6737.24,91.724,361.235,356.974,0.0
55318.0,STARLINK-5180,PAYLOAD,2023-07-03 12:30:07,15.69928286,0.0003353,69.9996,325.0234,264.8963,95.185,1.9106e-05,2.086e-05,0.0,0 STARLINK-5180,1 55318U 23010BB  23184.52092590  .00002086  00000-0  19106-4 0  9995,2 55318  69.9996 325.0234 0003353 264.8963  95.1850 15.69928286 26409,6737.239,91.724,361.363,356.845,0.0
55318.0,STARLINK-5180,PAYLOAD,2023-07-04 11:26:25,15.69920903,0.0003486,69.9995,322.3373,264.2541,95.8257,3.3944e-05,3.87e-05,0.0,0 STARLINK-5180,1 55318U 23010BB  23185.47668129  .00003870  00000-0  33944-4 0  9995,2 55318  69.9995 322.3373 0003486 264.2541  95.8257 15.69920903 26557,6737.26,91.724,361.474,356.777,0.0
55318.0,STARLINK-5180,PAYLOAD,2023-07-04 16:01:40,15.69932436,0.0003595,69.9999,321.8009,268.9219,91.1564,2.138e-05,2.36e-05,0.0,0 STARLINK-5180,1 55318U 23010BB  23185.66782486  .00002360  00000-0  21380-4 0  9993,2 55318  69.9999 321.8009 0003595 268.9219  91.1564 15.69932436 26582,6737.227,91.724,361.514,356.67,0.0
55318.0,STARLINK-5180,PAYLOAD,2023-07-05 02:43:56,15.69920522,0.0003422,69.9996,320.5461,269.9431,90.1372,5.2914e-06,4.23e-06,0.0,0 STARLINK-5180,1 55318U 23010BB  23186.11384777  .00000423  00000-0  52914-5 0  9991,2 55318  69.9996 320.5461 0003422 269.9431  90.1372 15.69920522 26650,6737.261,91.724,361.432,356.821,0.0
55318.0,STARLINK-5180,PAYLOAD,2023-07-05 14:57:56,15.69934567,0.0003279,69.9997,319.1131,267.0108,93.0712,3.016e-05,3.417e-05,0.0,0 STARLINK-5180,1 55318U 23010BB  23186.62357522  .00003417  00000-0  30160-4 0  9999,2 55318  69.9997 319.1131 0003279 267.0108  93.0712 15.69934567 26732,6737.221,91.724,361.295,356.877,0.0
55318.0,STARLINK-5180,PAYLOAD,2023-07-05 21:04:57,15.69928922,0.0003838,69.9996,318.3964,267.1217,92.9539,1.6439e-05,1.765e-05,0.0,0 STARLINK-5180,1 55318U 23010BB  23186.87844389  .00001765  00000-0  16439-4 0  9995,2 55318  69.9996 318.3964 0003838 267.1217  92.9539 15.69928922 26776,6737.237,91.724,361.688,356.517,0.0
55318.0,STARLINK-5180,PAYLOAD,2023-07-06 07:47:13,15.69925594,0.0003837,69.9978,317.143,269.4827,90.5929,9.5625e-06,9.37e-06,0.0,0 STARLINK-5180,1 55318U 23010BB  23187.32446450  .00000937  00000-0  95625-5 0  9998,2 55318  69.9978 317.1430 0003837 269.4827  90.5929 15.69925594 26849,6737.247,91.724,361.697,356.527,0.0
55318.0,STARLINK-5180,PAYLOAD,2023-07-06 15:25:58,15.69933659,0.0003642,69.9979,316.2471,270.5604,89.5175,1.4914e-05,1.581e-05,0.0,0 STARLINK-5180,1 55318U 23010BB  23187.64304225  .00001581  00000-0  14914-4 0  9993,2 55318  69.9979 316.2471 0003642 270.5604  89.5175 15.69933659 26892,6737.224,91.724,361.542,356.635,0.0
55318.0,STARLINK-5180,PAYLOAD,2023-07-07 02:08:15,15.6991896,0.0003202,69.9999,314.9928,271.4793,88.6036,6.8748e-06,6.14e-06,0.0,0 STARLINK-5180,1 55318U 23010BB  23188.08906833  .00000614  00000-0  68748-5 0  9996,2 55318  69.9999 314.9928 0003202 271.4793  88.6036 15.69918960 26969,6737.266,91.724,361.288,356.974,0.0
55318.0,STARLINK-5180,PAYLOAD,2023-07-07 17:25:46,15.69930491,0.0003181,70.0003,313.2016,270.3471,89.7361,1.0972e-05,1.107e-05,0.0,0 STARLINK-5180,1 55318U 23010BB  23188.72623079  .00001107  00000-0  10972-4 0  9998,2 55318  70.0003 313.2016 0003181 270.3471  89.7361 15.69930491 27063,6737.233,91.724,361.241,356.955,0.0
55318.0,STARLINK-5180,PAYLOAD,2023-07-08 08:43:17,15.69927589,0.0003218,70.0008,311.4094,278.7322,81.3509,2.1647e-05,2.391e-05,0.0,0 STARLINK-5180,1 55318U 23010BB  23189.36339983  .00002391  00000-0  21647-4 0  9994,2 55318  70.0008 311.4094 0003218 278.7322  81.3509 15.69927589 27169,6737.241,91.724,361.274,356.938,0.0
55318.0,STARLINK-5180,PAYLOAD,2023-07-08 17:53:48,15.69919836,0.0003357,70.0006,310.3372,266.3238,93.7574,5.6069e-06,4.61e-06,0.0,0 STARLINK-5180,1 55318U 23010BB  23189.74570294  .00000461  00000-0  56069-5 0  9991,2 55318  70.0006 310.3372 0003357 266.3238  93.7574 15.69919836 27229,6737.263,91.724,361.39,356.867,0.0
55318.0,STARLINK-5180,PAYLOAD,2023-07-09 16:50:05,15.69931349,0.0002993,70.0011,307.6499,266.7237,93.3617,3.1528e-05,3.581e-05,0.0,0 STARLINK-5180,1 55318U 23010BB  23190.70145119  .00003581  00000-0  31528-4 0  9991,2 55318  70.0011 307.6499 0002993 266.7237  93.3617 15.69931349 27375,6737.23,91.724,361.112,357.079,0.0
55318.0,STARLINK-5180,PAYLOAD,2023-07-10 09:39:22,15.69918061,0.000283,70.0009,305.6784,258.6885,101.3993,3.068e-05,3.477e-05,0.0,0 STARLINK-5180,1 55318U 23010BB  23191.40234005  .00003477  00000-0  30680-4 0  9994,2 55318  70.0009 305.6784 0002830 258.6885 101.3993 15.69918061 27481,6737.268,91.725,361.04,357.227,0.0
55318.0,STARLINK-5180,PAYLOAD,2023-07-11 10:07:24,15.69921889,0.0003401,69.9982,302.8109,269.0581,91.0225,1.2811e-05,1.328e-05,0.0,0 STARLINK-5180,1 55318U 23010BB  23192.42180657  .00001328  00000-0  12811-4 0  9999,2 55318  69.9982 302.8109 0003401 269.0581  91.0225 15.69921889 27645,6737.257,91.724,361.414,356.831,0.0
55318.0,STARLINK-5180,PAYLOAD,2023-07-12 16:42:26,15.69916686,0.0003563,69.9976,299.2287,273.3453,86.7335,5.0638e-06,3.96e-06,0.0,0 STARLINK-5180,1 55318U 23010BB  23193.69614323  .00000396  00000-0  50638-5 0  9995,2 55318  69.9976 299.2287 0003563 273.3453  86.7335 15.69916686 27843,6737.272,91.725,361.538,356.737,0.0
55318.0,STARLINK-5180,PAYLOAD,2023-07-13 15:38:43,15.69923107,0.0003361,69.9974,296.5405,270.976,89.105,1.3231e-05,1.378e-05,0.0,0 STARLINK-5180,1 55318U 23010BB  23194.65188981  .00001378  00000-0  13231-4 0  9996,2 55318  69.9974 296.5405 0003361 270.9760  89.1050 15.69923107 27996,6737.254,91.724,361.383,356.855,0.0
55318.0,STARLINK-5180,PAYLOAD,2023-07-14 09:59:54,15.69782819,0.0003793,69.9975,294.3913,275.9059,84.1704,-0.00013669,-0.00016522,0.0,0 STARLINK-5180,1 55318U 23010BB  23195.41660477 -.00016522  00000-0 -13669-3 0  9999,2 55318  69.9975 294.3913 0003793 275.9059  84.1704 15.69782819 28111,6737.655,91.732,362.076,356.965,0.0
55318.0,STARLINK-5180,PAYLOAD,2023-07-14 17:39:09,15.69410642,0.0003111,69.9989,293.4978,268.9104,91.1735,-0.00045802,-0.00053782,0.0,0 STARLINK-5180,1 55318U 23010BB  23195.73553202 -.00053782  00000-0 -45802-3 0  9994,2 55318  69.9989 293.4978 0003111 268.9104  91.1735 15.69410642 28163,6738.721,91.754,362.682,358.489,0.0
55318.0,STARLINK-5180,PAYLOAD,2023-07-14 22:14:46,15.69184766,0.0003625,69.9988,292.9612,281.4902,78.5886,-0.00069543,-0.00080549,0.0,0 STARLINK-5180,1 55318U 23010BB  23195.92692828 -.00080549  00000-0 -69543-3 0  9992,2 55318  69.9988 292.9612 0003625 281.4902  78.5886 15.69184766 28191,6739.367,91.767,363.675,358.789,0.0
55318.0,STARLINK-5180,PAYLOAD,2023-07-15 14:00:01,15.67235328,0.0003299,70.0011,291.1193,276.994,189.2945,-0.0088125,-0.00857087,0.0,0 STARLINK-5180,1 55318U 23010BB  23196.58334491 -.00857087  00000-0 -88125-2 0  9999,2 55318  70.0011 291.1193 0003299 276.9940 189.2945 15.67235328 28290,6744.955,91.882,369.045,364.594,0.0
55318.0,STARLINK-5180,PAYLOAD,2023-07-16 06:00:00,15.65981512,0.0003401,70.0014,289.2543,265.1064,359.8735,-0.010115,-0.00941595,0.0,0 STARLINK-5180,1 55318U 23010BB  23197.25001157 -.00941595  00000-0 -10115-1 0  9995,2 55318  70.0014 289.2543 0003401 265.1064 359.8735 15.65981512 28408,6748.554,91.955,372.715,368.124,0.0
55318.0,STARLINK-5180,PAYLOAD,2023-07-17 12:00:00,15.63492591,0.0003415,70.0008,285.7675,274.6631,189.4869,-0.010513,-0.00890879,0.0,0 STARLINK-5180,1 55318U 23010BB  23198.50001157 -.00890879  00000-0 -10513-1 0  9994,2 55318  70.0008 285.7675 0003415 274.6631 189.4869 15.63492591 28595,6755.715,92.101,379.887,375.272,0.0
55318.0,STARLINK-5180,PAYLOAD,2023-07-18 06:00:00,15.62070735,0.0003655,70.0011,283.6815,269.9895,92.3475,-0.011859,-0.00945115,0.0,0 STARLINK-5180,1 55318U 23010BB  23199.25001157 -.00945115  00000-0 -11859-1 0  9995,2 55318  70.0011 283.6815 0003655 269.9895  92.3475 15.62070735 28717,6759.813,92.185,384.149,379.208,0.0
55318.0,STARLINK-5180,PAYLOAD,2023-07-19 14:00:01,15.59404751,0.0003581,70.0005,279.984,273.8512,17.7655,-0.011889,-0.00862363,0.0,0 STARLINK-5180,1 55318U 23010BB  23200.58334491 -.00862363  00000-0 -11889-1 0  9990,2 55318  70.0005 279.9840 0003581 273.8512  17.7655 15.59404751 28923,6767.516,92.343,391.804,386.957,0.0
